{
"type": "FeatureCollection",
"name": "kashmir",
"crs": { "type": "name", "properties": { "name": "urn:ogc:def:crs:OGC:1.3:CRS84" } },
"features": [
{ "type": "Feature", "properties": { "name": "Azad Kashmir" }, "geometry": { "type": "Polygon", "coordinates": [ [ [ 74.368112679000035, 32.797227726000074 ], [ 74.353267994000078, 32.792986387000042 ], [ 74.334800225000038, 32.787709882000058 ], [ 74.314785958000073, 32.791758319000053 ], [ 74.275313700000083, 32.787709882000058 ], [ 74.171034121000048, 32.856171929000027 ], [ 74.070658048000041, 32.89836193800005 ], [ 73.963604308000072, 32.944754308000029 ], [ 73.887461556000062, 32.956651613000076 ], [ 73.854149102000065, 32.992343528000049 ], [ 73.697104676000038, 32.97568730100005 ], [ 73.697104676000038, 33.054209515000025 ], [ 73.521024561000047, 33.111316579000061 ], [ 73.566234320000035, 33.201736097000037 ], [ 73.523404022000079, 33.308811842000068 ], [ 73.52816294400003, 33.356401062000032 ], [ 73.590028930000074, 33.423025970000026 ], [ 73.594787852000081, 33.446820581000054 ], [ 73.566234320000035, 33.470615191000036 ], [ 73.597167313000057, 33.515824950000024 ], [ 73.57575216400005, 33.582449858000075 ], [ 73.61144407900008, 33.61338285100004 ], [ 73.549578093000036, 33.649074766000069 ], [ 73.56385485900006, 33.682387220000066 ], [ 73.573372703000075, 33.770427277000067 ], [ 73.566234320000035, 33.80611919200004 ], [ 73.597167313000057, 33.860846796000033 ], [ 73.580511086000058, 33.896538711000062 ], [ 73.537680788000046, 33.956025236000073 ], [ 73.523404022000079, 34.008373378000044 ], [ 73.495213358000058, 34.039804075000063 ], [ 73.500567145000048, 34.091557352000052 ], [ 73.480936592000035, 34.223617438000076 ], [ 73.479151996000041, 34.245032587000026 ], [ 73.448813868000059, 34.259309353000049 ], [ 73.434537102000036, 34.293216672000028 ], [ 73.436196709000058, 34.330834415000027 ], [ 73.438375973000063, 34.380231060000028 ], [ 73.439890890000072, 34.414569183000026 ], [ 73.44920122700006, 34.471362243000044 ], [ 73.457736847000035, 34.523429524000051 ], [ 73.491644166000071, 34.54127548200006 ], [ 73.55410501800003, 34.555552248000026 ], [ 73.604073699000082, 34.557336844000076 ], [ 73.664749955000048, 34.555552248000026 ], [ 73.680811316000074, 34.573398205000046 ], [ 73.700441870000077, 34.671550972000034 ], [ 73.728995402000066, 34.69296612100004 ], [ 73.74148757200004, 34.72151965300003 ], [ 73.75397974200007, 34.757211568000059 ], [ 73.784317870000052, 34.780411313000059 ], [ 73.807517615000052, 34.791118887000039 ], [ 73.875332254000057, 34.789334292000035 ], [ 73.932439318000036, 34.807180249000055 ], [ 73.987761786000078, 34.816103228000031 ], [ 74.03594587200007, 34.839302973000031 ], [ 74.068776028000059, 34.891290044000073 ], [ 74.089932049000083, 34.947354358000041 ], [ 74.094837531000053, 34.967793867000069 ], [ 74.128744851000079, 34.976716846000045 ], [ 74.132314042000075, 34.994562803000065 ], [ 74.110898893000069, 35.039177697000071 ], [ 74.132314042000075, 35.080223400000079 ], [ 74.183857958000033, 35.044356261000075 ], [ 74.218122197000071, 35.044356261000075 ], [ 74.25429000400004, 35.032934848000025 ], [ 74.288554243000078, 35.006284885000071 ], [ 74.303782793000039, 35.025320573000045 ], [ 74.357082720000051, 35.029127711000058 ], [ 74.38563625200004, 35.032934848000025 ], [ 74.419900490000032, 35.04245269200004 ], [ 74.440839747000041, 35.080524068000045 ], [ 74.496043242000042, 35.084331206000059 ], [ 74.518886068000029, 35.050066968000067 ], [ 74.547439600000075, 35.023417004000066 ], [ 74.549343169000053, 34.991056335000053 ], [ 74.579800270000078, 34.977731353000024 ], [ 74.591221682000082, 34.918720720000067 ], [ 74.570282426000063, 34.91110644500003 ], [ 74.581703838000067, 34.874938637000071 ], [ 74.631196627000065, 34.863517225000066 ], [ 74.682592985000042, 34.846385105000024 ], [ 74.705435811000029, 34.825445849000062 ], [ 74.735892912000054, 34.800699454000039 ], [ 74.773964288000059, 34.793085179000059 ], [ 74.806324957000072, 34.791181610000024 ], [ 74.86343202200004, 34.774049491000028 ], [ 74.924346223000043, 34.74359239000006 ], [ 74.941478343000028, 34.707424583000034 ], [ 74.950996187000044, 34.675063913000031 ], [ 74.899599829000067, 34.63318539900007 ], [ 74.874240612000051, 34.620631125000045 ], [ 74.83820494400004, 34.649459659000058 ], [ 74.817679542000064, 34.654591010000047 ], [ 74.771580036000046, 34.666115886000057 ], [ 74.710998615000051, 34.683652614000039 ], [ 74.659043502000031, 34.698692252000058 ], [ 74.601585220000061, 34.715324913000075 ], [ 74.592485493000083, 34.717959044000054 ], [ 74.584448548000069, 34.719204317000049 ], [ 74.550290163000057, 34.723222951000025 ], [ 74.519433208000066, 34.731343202000062 ], [ 74.478685534000078, 34.743038717000047 ], [ 74.433696573000077, 34.756535405000079 ], [ 74.39896123300008, 34.756535405000079 ], [ 74.378968970000074, 34.756535405000079 ], [ 74.35636876600006, 34.749943679000069 ], [ 74.336255658000084, 34.744077356000048 ], [ 74.321861906000038, 34.739879178000024 ], [ 74.295190896000065, 34.728025396000078 ], [ 74.273294453000062, 34.718453009000029 ], [ 74.239651127000059, 34.704434956000057 ], [ 74.198681936000071, 34.685026841000024 ], [ 74.166477739000072, 34.668369497000072 ], [ 74.152920175000077, 34.661356964000049 ], [ 74.095347955000079, 34.652499700000078 ], [ 74.07751379900003, 34.654377943000043 ], [ 74.043914014000052, 34.660677903000078 ], [ 74.014911436000034, 34.666115886000057 ], [ 73.972081138000078, 34.637562354000067 ], [ 73.962563294000063, 34.589973134000047 ], [ 73.972081138000078, 34.566178524000065 ], [ 73.967322216000071, 34.528107148000061 ], [ 73.947307809000051, 34.508962933000078 ], [ 73.929972449000047, 34.492381284000032 ], [ 73.912594613000067, 34.475759006000033 ], [ 73.907835691000059, 34.44006709100006 ], [ 73.878161801000033, 34.425230146000047 ], [ 73.861382578000075, 34.417317221000076 ], [ 73.829046573000085, 34.405403956000043 ], [ 73.819795634000059, 34.401995715000055 ], [ 73.791242102000069, 34.356785956000067 ], [ 73.803212863000056, 34.337832251000066 ], [ 73.819795634000059, 34.311576197000079 ], [ 73.886420542000053, 34.311576197000079 ], [ 73.910215152000035, 34.328232424000078 ], [ 73.943527606000032, 34.313955658000054 ], [ 73.950665989000072, 34.280643203000068 ], [ 74.000634670000068, 34.266366437000045 ], [ 74.007773053000051, 34.240192366000031 ], [ 74.007773053000051, 34.197362068000075 ], [ 74.000634670000068, 34.168808536000029 ], [ 73.954930597000043, 34.150188358000037 ], [ 73.932282813000029, 34.139475688000061 ], [ 73.905456230000084, 34.118839855000033 ], [ 73.898569183000063, 34.084404622000079 ], [ 73.891179464000061, 34.047456025000031 ], [ 73.903076769000052, 34.030799798000032 ], [ 73.945907067000064, 34.011764110000058 ], [ 73.986357904000045, 34.016523032000066 ], [ 74.02151953300006, 34.031906245000073 ], [ 74.028342166000073, 34.034048789000053 ], [ 74.045844429000056, 34.037938181000072 ], [ 74.095813110000051, 34.037938181000072 ], [ 74.119872536000059, 34.031522334000044 ], [ 74.13150502600007, 34.028420337000057 ], [ 74.169085060000043, 34.023722833000079 ], [ 74.184167182000067, 34.021837567000034 ], [ 74.188612090000049, 34.021281954000074 ], [ 74.205204017000028, 34.016096977000075 ], [ 74.226683466000054, 34.009384649000026 ], [ 74.246024705000082, 33.988285116000043 ], [ 74.252857537000068, 33.980831117000037 ], [ 74.264754842000059, 33.952277585000047 ], [ 74.267134303000034, 33.899929443000076 ], [ 74.251489928000069, 33.891396148000069 ], [ 74.23696814200008, 33.883349548000069 ], [ 74.203897991000076, 33.864270614000077 ], [ 74.167266313000084, 33.844046795000054 ], [ 74.139426619000062, 33.830126948000043 ], [ 74.103313203000084, 33.828545612000028 ], [ 74.091054188000044, 33.828545612000028 ], [ 74.07071830600006, 33.823273346000065 ], [ 74.038605905000054, 33.814947909000068 ], [ 74.026808741000082, 33.811889385000029 ], [ 74.003001676000054, 33.790246599000056 ], [ 73.987161034000053, 33.77584601500007 ], [ 73.974460599000054, 33.764300165000066 ], [ 73.96537038200006, 33.746946114000025 ], [ 73.954146269000034, 33.725518263000026 ], [ 73.94828652800004, 33.71433148400007 ], [ 73.952345060000084, 33.67696360900004 ], [ 73.957804372000055, 33.640568193000036 ], [ 73.971197221000068, 33.617800349000049 ], [ 73.976320097000041, 33.609091461000048 ], [ 73.981598982000037, 33.600117356000055 ], [ 73.99288597900005, 33.595884732000059 ], [ 74.013584030000061, 33.588122963000046 ], [ 74.023851567000065, 33.584272637000026 ], [ 74.038706046000073, 33.578702207000049 ], [ 74.069639039000037, 33.559666519000075 ], [ 74.111156600000072, 33.551978082000062 ], [ 74.133884487000046, 33.547769214000027 ], [ 74.133884487000046, 33.51445676000003 ], [ 74.143402331000061, 33.483523767000065 ], [ 74.143402331000061, 33.454970234000029 ], [ 74.141084471000056, 33.44647141300004 ], [ 74.136478840000052, 33.429584104000071 ], [ 74.127980687000047, 33.39975989900006 ], [ 74.123139714000047, 33.387657468000043 ], [ 74.109478326000044, 33.353503998000065 ], [ 74.105330954000067, 33.343135567000047 ], [ 74.087158712000075, 33.322367290000045 ], [ 74.07201850000007, 33.305064191000042 ], [ 74.035716766000064, 33.295290647000058 ], [ 73.994202556000062, 33.284113744000024 ], [ 73.96694952200005, 33.276776389000077 ], [ 73.94828652800004, 33.271751737000045 ], [ 73.94828652800004, 33.238439283000048 ], [ 73.953045450000047, 33.219403595000074 ], [ 73.987418166000054, 33.192963044000066 ], [ 74.010330429000078, 33.175338226000065 ], [ 74.04346496800008, 33.15277868700008 ], [ 74.075340895000068, 33.11862590800007 ], [ 74.097278847000041, 33.095120959000042 ], [ 74.110089876000075, 33.081394857000078 ], [ 74.141477551000037, 33.06345904300008 ], [ 74.143402331000061, 33.062359169000047 ], [ 74.181473707000066, 33.052841324000042 ], [ 74.210027239000055, 33.02904671400006 ], [ 74.224304005000079, 33.010011026000029 ], [ 74.262375381000084, 32.986216416000048 ], [ 74.283728280000048, 32.951723272000038 ], [ 74.306579394000039, 32.914809933000072 ], [ 74.314002045000052, 32.902819497000053 ], [ 74.32424136700007, 32.886279054000056 ], [ 74.341459216000032, 32.85132973900005 ], [ 74.355211676000067, 32.823414576000062 ], [ 74.368112679000035, 32.797227726000074 ] ] ] } },
{ "type": "Feature", "properties": { "name": "Indian Occupied Kashmir" }, "geometry": { "type": "Polygon", "coordinates": [ [ [ 74.874328613000046, 34.620727539000029 ], [ 74.916687012000068, 34.570922852000024 ], [ 74.985717773000033, 34.549499512000068 ], [ 75.040527344000054, 34.549499512000068 ], [ 75.090515137000068, 34.563903809000067 ], [ 75.119079590000069, 34.594726562000062 ], [ 75.155273437000062, 34.59991455100004 ], [ 75.185729980000076, 34.604309082000043 ], [ 75.249877930000082, 34.540100098000039 ], [ 75.350891113000046, 34.486694336000028 ], [ 75.435485840000069, 34.458312988000046 ], [ 75.490295410000044, 34.447326660000044 ], [ 75.579284668000071, 34.445312500000057 ], [ 75.652099609000061, 34.421081543000071 ], [ 75.768493652000075, 34.423095703000058 ], [ 75.897094727000081, 34.437683105000076 ], [ 75.923278809000067, 34.475891113000046 ], [ 75.987487793000071, 34.547119141000053 ], [ 76.010681152000075, 34.588073730000076 ], [ 76.028076172000056, 34.618530273000033 ], [ 76.05889892600004, 34.644714355000076 ], [ 76.167297363000046, 34.606689453000058 ], [ 76.204101562000062, 34.603698730000076 ], [ 76.227111816000047, 34.610717773000033 ], [ 76.308715820000032, 34.630126953000058 ], [ 76.380126953000058, 34.647094727000024 ], [ 76.401489258000083, 34.666076660000044 ], [ 76.491882324000073, 34.680480957000043 ], [ 76.525329590000069, 34.725708008000026 ], [ 76.591918945000032, 34.730285645000038 ], [ 76.676879883000083, 34.712890625000057 ], [ 76.729919434000067, 34.701904297000056 ], [ 76.757324219000054, 34.794677734000061 ], [ 76.76788330100004, 34.816101074000073 ], [ 76.837097168000071, 34.837524414000029 ], [ 76.877502441000047, 34.854125977000024 ], [ 76.932128906000059, 34.844726562000062 ], [ 76.955871582000043, 34.820922852000024 ], [ 76.994079590000069, 34.856506348000039 ], [ 77.077880859000061, 34.945495605000076 ], [ 77.133911133000083, 34.991271973000039 ], [ 77.270080566000047, 35.082519531000059 ], [ 77.35827636700003, 35.149719238000046 ], [ 77.53210449200003, 35.278320312000062 ], [ 77.650878906000059, 35.356079102000024 ], [ 77.730529785000044, 35.408874512000068 ], [ 77.793884277000075, 35.450927734000061 ], [ 77.804077148000033, 35.457702637000068 ], [ 77.812683105000076, 35.463317871000072 ], [ 77.818908691000047, 35.470703125000057 ], [ 77.832275391000053, 35.486877441000047 ], [ 77.853515625000057, 35.512084961000028 ], [ 77.865478516000053, 35.501708984000061 ], [ 77.898925781000059, 35.471496582000043 ], [ 77.929077148000033, 35.491516113000046 ], [ 77.945678711000085, 35.485290527000075 ], [ 77.980529785000044, 35.489318848000039 ], [ 78.005920410000044, 35.490722656000059 ], [ 78.016296387000068, 35.482116699000073 ], [ 78.029724121000072, 35.470886230000076 ], [ 78.046508789000029, 35.492919922000056 ], [ 78.063720703000058, 35.485473633000026 ], [ 78.076110840000069, 35.494689941000047 ], [ 78.090087891000053, 35.486694336000028 ], [ 78.111877441000047, 35.468872070000032 ], [ 78.106689453000058, 35.439086914000029 ], [ 78.081481934000067, 35.417724609000061 ], [ 78.050292969000054, 35.397888184000067 ], [ 78.023498535000044, 35.358886719000054 ], [ 78.017700195000032, 35.318481445000032 ], [ 78.009521484000061, 35.275085449000073 ], [ 78.004089355000076, 35.246887207000043 ], [ 78.011474609000061, 35.219482422000056 ], [ 78.030517578000058, 35.207519531000059 ], [ 78.045715332000043, 35.186889648000033 ], [ 78.069885254000042, 35.174316406000059 ], [ 78.086486816000047, 35.165710449000073 ], [ 78.095520020000038, 35.145324707000043 ], [ 78.104675293000071, 35.120910645000038 ], [ 78.113525391000053, 35.106079102000024 ], [ 78.130310059000067, 35.101074219000054 ], [ 78.137512207000043, 35.086120605000076 ], [ 78.14288330100004, 35.07507324200003 ], [ 78.128479004000042, 35.049072266000053 ], [ 78.137878418000071, 35.032470703000058 ], [ 78.144897461000085, 35.011108398000033 ], [ 78.15069580100004, 34.992919922000056 ], [ 78.177490234000061, 34.987304687000062 ], [ 78.197509766000053, 34.973083496000072 ], [ 78.204101562000062, 34.956115723000039 ], [ 78.193115234000061, 34.949279785000044 ], [ 78.184875488000046, 34.938293457000043 ], [ 78.181701660000044, 34.930908203000058 ], [ 78.188720703000058, 34.919494629000042 ], [ 78.195312500000057, 34.918090820000032 ], [ 78.202087402000075, 34.916503906000059 ], [ 78.215515137000068, 34.889709473000039 ], [ 78.236877441000047, 34.882507324000073 ], [ 78.235473633000083, 34.865905762000068 ], [ 78.231689453000058, 34.827880859000061 ], [ 78.230529785000044, 34.815124512000068 ], [ 78.206726074000073, 34.806518555000025 ], [ 78.187927246000072, 34.79968261700003 ], [ 78.198486328000058, 34.765075684000067 ], [ 78.203918457000043, 34.743713379000042 ], [ 78.207275391000053, 34.726501465000069 ], [ 78.225097656000059, 34.717529297000056 ], [ 78.234924316000047, 34.714721680000025 ], [ 78.250488281000059, 34.713073730000076 ], [ 78.266723633000083, 34.708496094000054 ], [ 78.273681641000053, 34.697326660000044 ], [ 78.278076172000056, 34.690490723000039 ], [ 78.279113770000038, 34.677124023000033 ], [ 78.270324707000043, 34.662475586000028 ], [ 78.266906738000046, 34.656677246000072 ], [ 78.272888184000067, 34.630920410000044 ], [ 78.301696777000075, 34.615478516000053 ], [ 78.324279785000044, 34.613281250000057 ], [ 78.347900391000053, 34.607482910000044 ], [ 78.383483887000068, 34.610107422000056 ], [ 78.39093017600004, 34.609130859000061 ], [ 78.432922363000046, 34.591918945000032 ], [ 78.436096191000047, 34.541687012000068 ], [ 78.448303223000039, 34.541687012000068 ], [ 78.463684082000043, 34.566284180000025 ], [ 78.481506348000039, 34.575927734000061 ], [ 78.490478516000053, 34.580688477000024 ], [ 78.51593017600004, 34.577880859000061 ], [ 78.538696289000029, 34.575500488000046 ], [ 78.556091309000067, 34.566284180000025 ], [ 78.563293457000043, 34.549926758000026 ], [ 78.560119629000042, 34.526306152000075 ], [ 78.567321777000075, 34.507873535000044 ], [ 78.582702637000068, 34.504699707000043 ], [ 78.596130371000072, 34.523071289000029 ], [ 78.612121582000043, 34.53350830100004 ], [ 78.618713379000042, 34.537475586000028 ], [ 78.634277344000054, 34.540710449000073 ], [ 78.639099121000072, 34.541687012000068 ], [ 78.677124023000033, 34.531494141000053 ], [ 78.70788574200003, 34.526306152000075 ], [ 78.719116211000085, 34.502685547000056 ], [ 78.732116699000073, 34.498291016000053 ], [ 78.750122070000032, 34.490112305000025 ], [ 78.757080078000058, 34.486328125000057 ], [ 78.761108398000033, 34.469909668000071 ], [ 78.740722656000059, 34.459472656000059 ], [ 78.76007080100004, 34.442077637000068 ], [ 78.790710449000073, 34.441101074000073 ], [ 78.831909180000082, 34.418518066000047 ], [ 78.870910645000038, 34.406127930000025 ], [ 78.878112793000071, 34.391906738000046 ], [ 78.899108887000068, 34.402709961000028 ], [ 78.929504395000038, 34.380310059000067 ], [ 78.952514648000033, 34.388305664000029 ], [ 78.957092285000044, 34.390686035000044 ], [ 78.965270996000072, 34.378479004000042 ], [ 78.96710205100004, 34.399108887000068 ], [ 78.975891113000046, 34.401489258000026 ], [ 79.000671387000068, 34.408081055000025 ], [ 79.027526855000076, 34.373474121000072 ], [ 79.038085937000062, 34.357116699000073 ], [ 79.033874512000068, 34.34851074200003 ], [ 79.029907227000081, 34.340881348000039 ], [ 79.033081055000082, 34.333129883000026 ], [ 79.047485352000081, 34.325683594000054 ], [ 79.053100586000085, 34.321472168000071 ], [ 79.057922363000046, 34.306884766000053 ], [ 79.053283691000047, 34.296081543000071 ], [ 79.026123047000056, 34.302124023000033 ], [ 79.009704590000069, 34.304687500000057 ], [ 78.992126465000069, 34.308715820000032 ], [ 78.982482910000044, 34.311889648000033 ], [ 78.977478027000075, 34.290100098000039 ], [ 78.962097168000071, 34.247680664000029 ], [ 78.956726074000073, 34.234130859000061 ], [ 78.951904297000056, 34.227722168000071 ], [ 78.944091797000056, 34.225524902000075 ], [ 78.939880371000072, 34.214904785000044 ], [ 78.935913086000085, 34.202270508000026 ], [ 78.933715820000032, 34.187683105000076 ], [ 78.930480957000043, 34.165893555000025 ], [ 78.922912598000039, 34.152282715000069 ], [ 78.912109375000057, 34.151306152000075 ], [ 78.906311035000044, 34.150878906000059 ], [ 78.910278320000032, 34.142517090000069 ], [ 78.901306152000075, 34.146911621000072 ], [ 78.890502930000082, 34.147888184000067 ], [ 78.882080078000058, 34.153686523000033 ], [ 78.878723145000038, 34.158325195000032 ], [ 78.874084473000039, 34.164306641000053 ], [ 78.860107422000056, 34.166076660000044 ], [ 78.861694336000085, 34.153503418000071 ], [ 78.854675293000071, 34.136108398000033 ], [ 78.841308594000054, 34.140319824000073 ], [ 78.839294434000067, 34.125915527000075 ], [ 78.82647705100004, 34.126525879000042 ], [ 78.804504395000038, 34.13171386700003 ], [ 78.794311523000033, 34.134704590000069 ], [ 78.783874512000068, 34.12530517600004 ], [ 78.745910645000038, 34.090881348000039 ], [ 78.727294922000056, 34.092712402000075 ], [ 78.705871582000043, 34.094726562000062 ], [ 78.691101074000073, 34.089904785000044 ], [ 78.694091797000056, 34.083679199000073 ], [ 78.681701660000044, 34.078918457000043 ], [ 78.672912598000039, 34.087890625000057 ], [ 78.66687011700003, 34.089904785000044 ], [ 78.663085937000062, 34.08428955100004 ], [ 78.659912109000061, 34.079711914000029 ], [ 78.665893555000082, 34.064086914000029 ], [ 78.656677246000072, 34.053894043000071 ], [ 78.652709961000085, 34.041687012000068 ], [ 78.658081055000082, 34.034301758000026 ], [ 78.66491699200003, 34.025085449000073 ], [ 78.68249511700003, 34.023071289000029 ], [ 78.70007324200003, 34.020690918000071 ], [ 78.70788574200003, 34.019104004000042 ], [ 78.719299316000047, 34.017089844000054 ], [ 78.746887207000043, 33.992309570000032 ], [ 78.739074707000043, 33.943298340000069 ], [ 78.737670898000033, 33.919494629000042 ], [ 78.756286621000072, 33.912292480000076 ], [ 78.761901855000076, 33.915283203000058 ], [ 78.764099121000072, 33.906677246000072 ], [ 78.761291504000042, 33.901916504000042 ], [ 78.761718750000057, 33.889709473000039 ], [ 78.750671387000068, 33.885681152000075 ], [ 78.755310059000067, 33.871520996000072 ], [ 78.758728027000075, 33.861328125000057 ], [ 78.763122559000067, 33.841308594000054 ], [ 78.759521484000061, 33.810729980000076 ], [ 78.755676270000038, 33.781311035000044 ], [ 78.763916016000053, 33.77429199200003 ], [ 78.762084961000085, 33.768676758000026 ], [ 78.769470215000069, 33.751098633000026 ], [ 78.775512695000032, 33.746520996000072 ], [ 78.776489258000083, 33.736877441000047 ], [ 78.765319824000073, 33.728088379000042 ], [ 78.757873535000044, 33.708923340000069 ], [ 78.745300293000071, 33.682312012000068 ], [ 78.731079102000081, 33.652709961000028 ], [ 78.717285156000059, 33.623718262000068 ], [ 78.73468017600004, 33.624511719000054 ], [ 78.745117187000062, 33.625488281000059 ], [ 78.752319336000085, 33.628112793000071 ], [ 78.757324219000054, 33.624084473000039 ], [ 78.752685547000056, 33.620727539000029 ], [ 78.754272461000085, 33.613098145000038 ], [ 78.74108886700003, 33.601501465000069 ], [ 78.740478516000053, 33.589477539000029 ], [ 78.736328125000057, 33.573913574000073 ], [ 78.732910156000059, 33.570129395000038 ], [ 78.749328613000046, 33.549316406000059 ], [ 78.76007080100004, 33.537292480000076 ], [ 78.772888184000067, 33.51788330100004 ], [ 78.785888672000056, 33.504516602000024 ], [ 78.798706055000082, 33.492675781000059 ], [ 78.813110352000081, 33.484130859000061 ], [ 78.810485840000069, 33.47491455100004 ], [ 78.817321777000075, 33.462524414000029 ], [ 78.823303223000039, 33.454895020000038 ], [ 78.829895020000038, 33.443908691000047 ], [ 78.835327148000033, 33.439514160000044 ], [ 78.836303711000085, 33.426879883000026 ], [ 78.844909668000071, 33.420104980000076 ], [ 78.855712891000053, 33.416503906000059 ], [ 78.860290527000075, 33.417480469000054 ], [ 78.869873047000056, 33.41491699200003 ], [ 78.880126953000058, 33.414672852000024 ], [ 78.890502930000082, 33.415100098000039 ], [ 78.894470215000069, 33.411499023000033 ], [ 78.902099609000061, 33.410888672000056 ], [ 78.911315918000071, 33.400085449000073 ], [ 78.919494629000042, 33.395324707000043 ], [ 78.923889160000044, 33.393493652000075 ], [ 78.926513672000056, 33.389892578000058 ], [ 78.936279297000056, 33.386901855000076 ], [ 78.941101074000073, 33.379516602000024 ], [ 78.945312500000057, 33.379882812000062 ], [ 78.954101562000062, 33.372314453000058 ], [ 78.95007324200003, 33.367126465000069 ], [ 78.955871582000043, 33.359130859000061 ], [ 78.953491211000085, 33.355712891000053 ], [ 78.958496094000054, 33.348083496000072 ], [ 78.962097168000071, 33.339111328000058 ], [ 78.970275879000042, 33.336303711000028 ], [ 78.977294922000056, 33.334472656000059 ], [ 78.979919434000067, 33.327087402000075 ], [ 78.995300293000071, 33.324890137000068 ], [ 79.003112793000071, 33.327697754000042 ], [ 79.008728027000075, 33.324707031000059 ], [ 79.020874023000033, 33.324707031000059 ], [ 79.025085449000073, 33.314086914000029 ], [ 79.028686523000033, 33.30889892600004 ], [ 79.037475586000085, 33.306518555000025 ], [ 79.031677246000072, 33.294494629000042 ], [ 79.037292480000076, 33.292114258000026 ], [ 79.039672852000081, 33.287292480000076 ], [ 79.032897949000073, 33.278686523000033 ], [ 79.044311523000033, 33.261108398000033 ], [ 79.050720215000069, 33.261901855000076 ], [ 79.056091309000067, 33.258300781000059 ], [ 79.061096191000047, 33.255310059000067 ], [ 79.069519043000071, 33.253112793000071 ], [ 79.080688477000081, 33.244689941000047 ], [ 79.073730469000054, 33.239685059000067 ], [ 79.067871094000054, 33.238525391000053 ], [ 79.068298340000069, 33.229125977000024 ], [ 79.078918457000043, 33.220703125000057 ], [ 79.083129883000083, 33.220520020000038 ], [ 79.097290039000029, 33.210083008000026 ], [ 79.099487305000082, 33.207702637000068 ], [ 79.103088379000042, 33.206726074000073 ], [ 79.106689453000058, 33.199279785000044 ], [ 79.120300293000071, 33.20147705100004 ], [ 79.129516602000081, 33.199707031000059 ], [ 79.137329102000081, 33.193298340000069 ], [ 79.143493652000075, 33.189514160000044 ], [ 79.144287109000061, 33.185485840000069 ], [ 79.151489258000083, 33.182678223000039 ], [ 79.156677246000072, 33.17608642600004 ], [ 79.165527344000054, 33.172912598000039 ], [ 79.164123535000044, 33.167907715000069 ], [ 79.155090332000043, 33.163085937000062 ], [ 79.155517578000058, 33.154113770000038 ], [ 79.159301758000083, 33.136291504000042 ], [ 79.157287598000039, 33.128723145000038 ], [ 79.148925781000059, 33.11608886700003 ], [ 79.144287109000061, 33.110900879000042 ], [ 79.14288330100004, 33.085876465000069 ], [ 79.141723633000083, 33.04772949200003 ], [ 79.141296387000068, 33.033325195000032 ], [ 79.140502930000082, 33.027282715000069 ], [ 79.139709473000039, 33.023681641000053 ], [ 79.146728516000053, 33.02569580100004 ], [ 79.150085449000073, 33.025878906000059 ], [ 79.154296875000057, 33.01593017600004 ], [ 79.15710449200003, 33.007873535000044 ], [ 79.159729004000042, 33.013305664000029 ], [ 79.163696289000029, 33.012878418000071 ], [ 79.169677734000061, 33.007690430000025 ], [ 79.167724609000061, 33.002319336000028 ], [ 79.171081543000071, 32.997680664000029 ], [ 79.176513672000056, 32.994323730000076 ], [ 79.174499512000068, 32.986877441000047 ], [ 79.176330566000047, 32.984313965000069 ], [ 79.182312012000068, 32.983886719000054 ], [ 79.185119629000042, 32.986694336000028 ], [ 79.188476562000062, 32.987304687000062 ], [ 79.198303223000039, 32.981079102000024 ], [ 79.202270508000083, 32.976684570000032 ], [ 79.202270508000083, 32.969299316000047 ], [ 79.207092285000044, 32.966308594000054 ], [ 79.213073730000076, 32.963684082000043 ], [ 79.221923828000058, 32.960510254000042 ], [ 79.225280762000068, 32.954101562000062 ], [ 79.234130859000061, 32.951721191000047 ], [ 79.241271973000039, 32.943725586000028 ], [ 79.235290527000075, 32.937316895000038 ], [ 79.228515625000057, 32.929321289000029 ], [ 79.220275879000042, 32.922119141000053 ], [ 79.219482422000056, 32.917114258000026 ], [ 79.226684570000032, 32.910705566000047 ], [ 79.230102539000029, 32.901489258000026 ], [ 79.227111816000047, 32.890502930000025 ], [ 79.231506348000039, 32.885925293000071 ], [ 79.233886719000054, 32.880126953000058 ], [ 79.233093262000068, 32.875488281000059 ], [ 79.23132324200003, 32.867309570000032 ], [ 79.228515625000057, 32.862670898000033 ], [ 79.229125977000081, 32.854309082000043 ], [ 79.235473633000083, 32.848876953000058 ], [ 79.229675293000071, 32.842895508000026 ], [ 79.225524902000075, 32.833129883000026 ], [ 79.230712891000053, 32.824707031000059 ], [ 79.228698730000076, 32.820312500000057 ], [ 79.226501465000069, 32.8125 ], [ 79.226501465000069, 32.803283691000047 ], [ 79.222473145000038, 32.796325684000067 ], [ 79.223876953000058, 32.788879395000038 ], [ 79.23272705100004, 32.784301758000026 ], [ 79.242309570000032, 32.791076660000044 ], [ 79.25671386700003, 32.789672852000024 ], [ 79.269104004000042, 32.782714844000054 ], [ 79.274902344000054, 32.77429199200003 ], [ 79.278320312000062, 32.763488770000038 ], [ 79.282714844000054, 32.759521484000061 ], [ 79.281921387000068, 32.751098633000026 ], [ 79.286499023000033, 32.74249267600004 ], [ 79.288879395000038, 32.737304687000062 ], [ 79.293090820000032, 32.731079102000024 ], [ 79.296875, 32.729125977000024 ], [ 79.295104980000076, 32.723876953000058 ], [ 79.291503906000059, 32.719482422000056 ], [ 79.289306641000053, 32.717285156000059 ], [ 79.281494141000053, 32.712280273000033 ], [ 79.279296875000057, 32.708129883000026 ], [ 79.284729004000042, 32.703308105000076 ], [ 79.284301758000083, 32.696289062000062 ], [ 79.279907227000081, 32.690673828000058 ], [ 79.271728516000053, 32.686523437000062 ], [ 79.269104004000042, 32.680480957000043 ], [ 79.276672363000046, 32.665283203000058 ], [ 79.277893066000047, 32.660095215000069 ], [ 79.286315918000071, 32.651489258000026 ], [ 79.288085937000062, 32.645324707000043 ], [ 79.292480469000054, 32.641723633000026 ], [ 79.295288086000085, 32.635681152000075 ], [ 79.292114258000083, 32.63171386700003 ], [ 79.290283203000058, 32.628295898000033 ], [ 79.295471191000047, 32.621704102000024 ], [ 79.298889160000044, 32.614929199000073 ], [ 79.302917480000076, 32.60968017600004 ], [ 79.305114746000072, 32.601501465000069 ], [ 79.295288086000085, 32.59991455100004 ], [ 79.289306641000053, 32.596496582000043 ], [ 79.289306641000053, 32.587097168000071 ], [ 79.281494141000053, 32.581726074000073 ], [ 79.276123047000056, 32.571105957000043 ], [ 79.268920898000033, 32.564086914000029 ], [ 79.266906738000046, 32.559875488000046 ], [ 79.275329590000069, 32.556884766000053 ], [ 79.272705078000058, 32.548522949000073 ], [ 79.267517090000069, 32.539489746000072 ], [ 79.257507324000073, 32.537902832000043 ], [ 79.254089355000076, 32.533874512000068 ], [ 79.251708984000061, 32.527893066000047 ], [ 79.252685547000056, 32.521911621000072 ], [ 79.248107910000044, 32.516906738000046 ], [ 79.238098145000038, 32.518493652000075 ], [ 79.230102539000029, 32.520507812000062 ], [ 79.22491455100004, 32.523498535000044 ], [ 79.220703125000057, 32.515319824000073 ], [ 79.221679687000062, 32.509704590000069 ], [ 79.206909180000082, 32.509887695000032 ], [ 79.200317383000083, 32.51452636700003 ], [ 79.193725586000085, 32.515075684000067 ], [ 79.187683105000076, 32.51452636700003 ], [ 79.18249511700003, 32.51007080100004 ], [ 79.181518555000082, 32.503479004000042 ], [ 79.18389892600004, 32.498718262000068 ], [ 79.171325684000067, 32.495910645000038 ], [ 79.167907715000069, 32.495117187000062 ], [ 79.163696289000029, 32.494689941000047 ], [ 79.155273437000062, 32.494323730000076 ], [ 79.150878906000059, 32.488281250000057 ], [ 79.15069580100004, 32.479675293000071 ], [ 79.147277832000043, 32.476928711000028 ], [ 79.138488770000038, 32.480285645000038 ], [ 79.13171386700003, 32.480895996000072 ], [ 79.129516602000081, 32.476074219000054 ], [ 79.132080078000058, 32.471679687000062 ], [ 79.128906250000057, 32.466918945000032 ], [ 79.125671387000068, 32.460693359000061 ], [ 79.120117187000062, 32.456909180000025 ], [ 79.119079590000069, 32.451904297000056 ], [ 79.120727539000029, 32.446105957000043 ], [ 79.118103027000075, 32.442687988000046 ], [ 79.120117187000062, 32.436096191000047 ], [ 79.122924805000082, 32.430114746000072 ], [ 79.126281738000046, 32.422485352000024 ], [ 79.124877930000082, 32.419128418000071 ], [ 79.116516113000046, 32.417724609000061 ], [ 79.112304687000062, 32.414672852000024 ], [ 79.107910156000059, 32.409912109000061 ], [ 79.103881836000085, 32.400512695000032 ], [ 79.100524902000075, 32.393920898000033 ], [ 79.102722168000071, 32.387878418000071 ], [ 79.103698730000076, 32.377685547000056 ], [ 79.103698730000076, 32.373474121000072 ], [ 79.093322754000042, 32.371093750000057 ], [ 79.084899902000075, 32.37530517600004 ], [ 79.072082520000038, 32.383911133000026 ], [ 79.057678223000039, 32.387084961000028 ], [ 79.045715332000043, 32.382873535000044 ], [ 79.037109375000057, 32.383483887000068 ], [ 79.031311035000044, 32.380920410000044 ], [ 79.025329590000069, 32.380676270000038 ], [ 79.011901855000076, 32.380676270000038 ], [ 78.997680664000029, 32.374328613000046 ], [ 78.990295410000044, 32.370910645000038 ], [ 78.973327637000068, 32.338684082000043 ], [ 78.960693359000061, 32.340881348000039 ], [ 78.955688477000081, 32.345886230000076 ], [ 78.941528320000032, 32.354125977000024 ], [ 78.936706543000071, 32.35968017600004 ], [ 78.925903320000032, 32.363891602000024 ], [ 78.910278320000032, 32.371276855000076 ], [ 78.906127930000082, 32.376708984000061 ], [ 78.901489258000083, 32.384277344000054 ], [ 78.902282715000069, 32.394470215000069 ], [ 78.894470215000069, 32.397888184000067 ], [ 78.888488770000038, 32.39929199200003 ], [ 78.882080078000058, 32.398071289000029 ], [ 78.875671387000068, 32.403503418000071 ], [ 78.870910645000038, 32.410705566000047 ], [ 78.863708496000072, 32.413330078000058 ], [ 78.850280762000068, 32.413085937000062 ], [ 78.838500977000081, 32.412719727000024 ], [ 78.835083008000083, 32.415283203000058 ], [ 78.832092285000044, 32.426513672000056 ], [ 78.816101074000073, 32.432312012000068 ], [ 78.809875488000046, 32.437072754000042 ], [ 78.796325684000067, 32.472106934000067 ], [ 78.794494629000042, 32.475891113000046 ], [ 78.779479980000076, 32.479309082000043 ], [ 78.780273437000062, 32.490112305000025 ], [ 78.780273437000062, 32.502075195000032 ], [ 78.778076172000056, 32.510925293000071 ], [ 78.780883789000029, 32.515502930000025 ], [ 78.770874023000033, 32.523681641000053 ], [ 78.768127441000047, 32.534484863000046 ], [ 78.771301270000038, 32.538879395000038 ], [ 78.762695312000062, 32.551696777000075 ], [ 78.761108398000033, 32.557922363000046 ], [ 78.758300781000059, 32.564086914000029 ], [ 78.760925293000071, 32.57452392600004 ], [ 78.768920898000033, 32.580688477000024 ], [ 78.774719238000046, 32.585510254000042 ], [ 78.777709961000085, 32.594299316000047 ], [ 78.777709961000085, 32.607910156000059 ], [ 78.781921387000068, 32.616516113000046 ], [ 78.774108887000068, 32.618896484000061 ], [ 78.770874023000033, 32.629272461000028 ], [ 78.766113281000059, 32.633911133000026 ], [ 78.753112793000071, 32.639892578000058 ], [ 78.751892090000069, 32.645874023000033 ], [ 78.743896484000061, 32.654724121000072 ], [ 78.740478516000053, 32.662902832000043 ], [ 78.743530273000033, 32.670898437000062 ], [ 78.744323730000076, 32.676513672000056 ], [ 78.749084473000039, 32.686279297000056 ], [ 78.745483398000033, 32.691894531000059 ], [ 78.738891602000081, 32.695312500000057 ], [ 78.732482910000044, 32.686279297000056 ], [ 78.724121094000054, 32.675903320000032 ], [ 78.715881348000039, 32.672302246000072 ], [ 78.710510254000042, 32.667907715000069 ], [ 78.698730469000054, 32.665893555000025 ], [ 78.688110352000081, 32.663513184000067 ], [ 78.672302246000072, 32.656127930000025 ], [ 78.663879395000038, 32.657287598000039 ], [ 78.650085449000073, 32.650329590000069 ], [ 78.639892578000058, 32.644104004000042 ], [ 78.632507324000073, 32.640686035000044 ], [ 78.630493164000029, 32.635314941000047 ], [ 78.597900391000053, 32.72491455100004 ], [ 78.365722656000059, 32.827270508000026 ], [ 78.356079102000081, 32.791687012000068 ], [ 78.325317383000083, 32.786926270000038 ], [ 78.303710937000062, 32.758483887000068 ], [ 78.272888184000067, 32.741699219000054 ], [ 78.256286621000072, 32.729675293000071 ], [ 78.227722168000071, 32.741699219000054 ], [ 78.210876465000069, 32.758300781000059 ], [ 78.203308105000076, 32.738281250000057 ], [ 78.199096680000082, 32.727294922000056 ], [ 78.175720215000069, 32.72351074200003 ], [ 78.148925781000059, 32.726501465000069 ], [ 78.144287109000061, 32.727294922000056 ], [ 78.137512207000043, 32.718505859000061 ], [ 78.120483398000033, 32.696289062000062 ], [ 78.089721680000082, 32.699279785000044 ], [ 78.070678711000085, 32.701110840000069 ], [ 78.077697754000042, 32.674926758000026 ], [ 78.051513672000056, 32.667907715000069 ], [ 78.013488770000038, 32.707092285000044 ], [ 77.996093750000057, 32.726074219000054 ], [ 77.969482422000056, 32.753479004000042 ], [ 77.944274902000075, 32.779724121000072 ], [ 77.937316895000038, 32.786926270000038 ], [ 77.954101562000062, 32.832092285000044 ], [ 77.920715332000043, 32.851074219000054 ], [ 77.902282715000069, 32.87390136700003 ], [ 77.885314941000047, 32.895324707000043 ], [ 77.866271973000039, 32.918884277000075 ], [ 77.841674805000082, 32.953918457000043 ], [ 77.828918457000043, 32.968872070000032 ], [ 77.811279297000056, 32.986694336000028 ], [ 77.789489746000072, 33.008483887000068 ], [ 77.775512695000032, 33.022521973000039 ], [ 77.746887207000043, 33.046081543000071 ], [ 77.710510254000042, 33.026123047000056 ], [ 77.683288574000073, 33.011108398000033 ], [ 77.660888672000056, 32.999328613000046 ], [ 77.633911133000083, 32.985107422000056 ], [ 77.60772705100004, 32.969482422000056 ], [ 77.57507324200003, 32.94812011700003 ], [ 77.561279297000056, 32.939086914000029 ], [ 77.546875, 32.938720703000058 ], [ 77.528930664000029, 32.938110352000024 ], [ 77.512329102000081, 32.9375 ], [ 77.487670898000033, 32.936706543000071 ], [ 77.463500977000081, 32.929321289000029 ], [ 77.442504883000083, 32.922912598000039 ], [ 77.428283691000047, 32.915283203000058 ], [ 77.401916504000042, 32.889099121000072 ], [ 77.382690430000082, 32.893920898000033 ], [ 77.337280273000033, 32.904907227000024 ], [ 77.313903809000067, 32.910522461000028 ], [ 77.295715332000043, 32.920471191000047 ], [ 77.277099609000061, 32.930725098000039 ], [ 77.254516602000081, 32.943115234000061 ], [ 77.240112305000082, 32.951110840000069 ], [ 77.220275879000042, 32.947692871000072 ], [ 77.203125, 32.944885254000042 ], [ 77.171081543000071, 32.938476562000062 ], [ 77.140319824000073, 32.951721191000047 ], [ 77.118896484000061, 32.961120605000076 ], [ 77.089477539000029, 32.974121094000054 ], [ 77.066528320000032, 32.984313965000069 ], [ 77.042724609000061, 33.005676270000038 ], [ 77.018920898000033, 33.027099609000061 ], [ 77.005920410000044, 33.031311035000044 ], [ 76.973693848000039, 33.041503906000059 ], [ 76.958923340000069, 33.054077148000033 ], [ 76.94030761700003, 33.069885254000042 ], [ 76.911682129000042, 33.089111328000058 ], [ 76.899475098000039, 33.096496582000043 ], [ 76.873718262000068, 33.111877441000047 ], [ 76.864318848000039, 33.117675781000059 ], [ 76.837280273000033, 33.144470215000069 ], [ 76.822326660000044, 33.157470703000058 ], [ 76.809509277000075, 33.167480469000054 ], [ 76.802673340000069, 33.180297852000024 ], [ 76.790527344000054, 33.203308105000076 ], [ 76.771728516000053, 33.215087891000053 ], [ 76.757507324000073, 33.224121094000054 ], [ 76.745300293000071, 33.231689453000058 ], [ 76.724487305000082, 33.223083496000072 ], [ 76.706909180000082, 33.218078613000046 ], [ 76.665283203000058, 33.210083008000026 ], [ 76.635681152000075, 33.201721191000047 ], [ 76.611877441000047, 33.193725586000028 ], [ 76.592895508000083, 33.217529297000056 ], [ 76.583679199000073, 33.221496582000043 ], [ 76.559326172000056, 33.230285645000038 ], [ 76.532470703000058, 33.234497070000032 ], [ 76.510681152000075, 33.237670898000033 ], [ 76.485717773000033, 33.239318848000039 ], [ 76.459716797000056, 33.217529297000056 ], [ 76.433288574000073, 33.213073730000076 ], [ 76.392700195000032, 33.206909180000025 ], [ 76.349670410000044, 33.202087402000075 ], [ 76.338317871000072, 33.200927734000061 ], [ 76.326721191000047, 33.182922363000046 ], [ 76.306701660000044, 33.154907227000024 ], [ 76.290710449000073, 33.139099121000072 ], [ 76.277282715000069, 33.108093262000068 ], [ 76.259887695000032, 33.067687988000046 ], [ 76.211486816000047, 33.058288574000073 ], [ 76.186096191000047, 33.053283691000047 ], [ 76.157287598000039, 33.042907715000069 ], [ 76.121704102000081, 33.028503418000071 ], [ 76.083679199000073, 33.010498047000056 ], [ 76.061096191000047, 32.992675781000059 ], [ 76.009521484000061, 32.952880859000061 ], [ 75.988525391000053, 32.936706543000071 ], [ 75.969482422000056, 32.931701660000044 ], [ 75.93389892600004, 32.922485352000024 ], [ 75.909301758000083, 32.926879883000026 ], [ 75.87530517600004, 32.932678223000039 ], [ 75.843688965000069, 32.9375 ], [ 75.820678711000085, 32.939086914000029 ], [ 75.798095703000058, 32.940673828000058 ], [ 75.788696289000029, 32.941528320000032 ], [ 75.786315918000071, 32.910522461000028 ], [ 75.841125488000046, 32.862915039000029 ], [ 75.855102539000029, 32.842895508000026 ], [ 75.879089355000076, 32.808288574000073 ], [ 75.891113281000059, 32.744079590000069 ], [ 75.869689941000047, 32.713073730000076 ], [ 75.881530762000068, 32.651306152000075 ], [ 75.845092773000033, 32.597106934000067 ], [ 75.822509766000053, 32.570922852000024 ], [ 75.785705566000047, 32.532897949000073 ], [ 75.772277832000043, 32.520324707000043 ], [ 75.740478516000053, 32.498291016000053 ], [ 75.689880371000072, 32.467285156000059 ], [ 75.679321289000029, 32.460876465000069 ], [ 75.641113281000059, 32.415710449000073 ], [ 75.616271973000039, 32.408325195000032 ], [ 75.572326660000044, 32.395324707000043 ], [ 75.547119141000053, 32.383911133000026 ], [ 75.512695312000062, 32.363281250000057 ], [ 75.498474121000072, 32.325317383000026 ], [ 75.467529297000056, 32.322875977000024 ], [ 75.450927734000061, 32.346679687000062 ], [ 75.417480469000054, 32.353698730000076 ], [ 75.377075195000032, 32.353698730000076 ], [ 75.347473145000038, 32.341918945000032 ], [ 75.332275391000053, 32.34210205100004 ], [ 75.309692383000083, 32.34851074200003 ], [ 75.274719238000046, 32.356079102000024 ], [ 75.253479004000042, 32.365905762000068 ], [ 75.237670898000033, 32.373291016000053 ], [ 75.205688477000081, 32.387878418000071 ], [ 75.194274902000075, 32.398681641000053 ], [ 75.176879883000083, 32.415100098000039 ], [ 75.168090820000032, 32.422485352000024 ], [ 75.14929199200003, 32.428283691000047 ], [ 75.131286621000072, 32.431274414000029 ], [ 75.108520508000083, 32.438476562000062 ], [ 75.101074219000054, 32.44030761700003 ], [ 75.087524414000029, 32.436279297000056 ], [ 75.077087402000075, 32.432922363000046 ], [ 75.070129395000038, 32.430908203000058 ], [ 75.064514160000044, 32.440917969000054 ], [ 75.05108642600004, 32.456115723000039 ], [ 75.043518066000047, 32.466308594000054 ], [ 75.031311035000044, 32.473693848000039 ], [ 75.017272949000073, 32.478271484000061 ], [ 75.005126953000058, 32.486083984000061 ], [ 75.001098633000083, 32.487915039000029 ], [ 74.991516113000046, 32.494689941000047 ], [ 74.978271484000061, 32.503723145000038 ], [ 74.973327637000068, 32.507080078000058 ], [ 74.966125488000046, 32.511901855000076 ], [ 74.963073730000076, 32.514099121000072 ], [ 74.950500488000046, 32.498718262000068 ], [ 74.930480957000043, 32.473083496000072 ], [ 74.923278809000067, 32.468322754000042 ], [ 74.922485352000081, 32.464111328000058 ], [ 74.916503906000059, 32.466308594000054 ], [ 74.909118652000075, 32.46569824200003 ], [ 74.891296387000068, 32.467712402000075 ], [ 74.879699707000043, 32.468872070000032 ], [ 74.872070312000062, 32.473693848000039 ], [ 74.855895996000072, 32.483703613000046 ], [ 74.848876953000058, 32.487915039000029 ], [ 74.824279785000044, 32.492675781000059 ], [ 74.809326172000056, 32.495483398000033 ], [ 74.796875, 32.497680664000029 ], [ 74.772705078000058, 32.499877930000025 ], [ 74.754516602000081, 32.500671387000068 ], [ 74.740905762000068, 32.500915527000075 ], [ 74.719726562000062, 32.501281738000046 ], [ 74.6875, 32.503295898000033 ], [ 74.673278809000067, 32.502075195000032 ], [ 74.660278320000032, 32.502319336000028 ], [ 74.651672363000046, 32.504272461000028 ], [ 74.630310059000067, 32.509521484000061 ], [ 74.610900879000042, 32.514099121000072 ], [ 74.606079102000081, 32.547485352000024 ], [ 74.601074219000054, 32.561096191000047 ], [ 74.595703125000057, 32.576110840000069 ], [ 74.587097168000071, 32.599304199000073 ], [ 74.579895020000038, 32.618896484000061 ], [ 74.58428955100004, 32.628112793000071 ], [ 74.591674805000082, 32.643676758000026 ], [ 74.598083496000072, 32.657470703000058 ], [ 74.601074219000054, 32.660705566000047 ], [ 74.627502441000047, 32.678283691000047 ], [ 74.624084473000039, 32.680725098000039 ], [ 74.59851074200003, 32.70007324200003 ], [ 74.589477539000029, 32.706909180000025 ], [ 74.596679687000062, 32.752075195000032 ], [ 74.639282227000081, 32.816284180000025 ], [ 74.620483398000033, 32.847290039000029 ], [ 74.570495605000076, 32.766296387000068 ], [ 74.522277832000043, 32.766113281000059 ], [ 74.45788574200003, 32.76452636700003 ], [ 74.43249511700003, 32.763916016000053 ], [ 74.41491699200003, 32.773071289000029 ], [ 74.397521973000039, 32.78210449200003 ], [ 74.380493164000029, 32.790893555000025 ], [ 74.368103027000075, 32.797302246000072 ], [ 74.347717285000044, 32.838928223000039 ], [ 74.324279785000044, 32.886291504000042 ], [ 74.303894043000071, 32.919311523000033 ], [ 74.283874512000068, 32.951721191000047 ], [ 74.262512207000043, 32.986328125000057 ], [ 74.224304199000073, 33.01007080100004 ], [ 74.210083008000083, 33.029113770000038 ], [ 74.194519043000071, 33.042114258000026 ], [ 74.181518555000082, 33.052917480000076 ], [ 74.143493652000075, 33.0625 ], [ 74.118713379000042, 33.07647705100004 ], [ 74.110107422000056, 33.081481934000067 ], [ 74.097290039000029, 33.095092773000033 ], [ 74.085693359000061, 33.107482910000044 ], [ 74.075317383000083, 33.118713379000042 ], [ 74.065490723000039, 33.129272461000028 ], [ 74.053283691000047, 33.142272949000073 ], [ 74.043518066000047, 33.152893066000047 ], [ 74.022888184000067, 33.166503906000059 ], [ 74.006896973000039, 33.178100586000028 ], [ 73.987487793000071, 33.193115234000061 ], [ 73.973083496000072, 33.204101562000062 ], [ 73.953125, 33.219482422000056 ], [ 73.948303223000039, 33.238525391000053 ], [ 73.948303223000039, 33.271728516000053 ], [ 73.96710205100004, 33.276916504000042 ], [ 74.014282227000081, 33.289672852000024 ], [ 74.040893555000082, 33.296691895000038 ], [ 74.072082520000038, 33.305114746000072 ], [ 74.079101562000062, 33.313293457000043 ], [ 74.087280273000033, 33.322509766000053 ], [ 74.100524902000075, 33.337707520000038 ], [ 74.105285645000038, 33.343078613000046 ], [ 74.113098145000038, 33.362304687000062 ], [ 74.123291016000053, 33.387695312000062 ], [ 74.130676270000038, 33.408081055000025 ], [ 74.139709473000039, 33.441101074000073 ], [ 74.143493652000075, 33.455078125000057 ], [ 74.143493652000075, 33.475524902000075 ], [ 74.143493652000075, 33.483520508000026 ], [ 74.133911133000083, 33.51452636700003 ], [ 74.133911133000083, 33.547912598000039 ], [ 74.097290039000029, 33.554687500000057 ], [ 74.069702148000033, 33.559692383000026 ], [ 74.042297363000046, 33.575683594000054 ], [ 74.036071777000075, 33.580322266000053 ], [ 74.023925781000059, 33.58428955100004 ], [ 74.013671875000057, 33.588073730000076 ], [ 73.992919922000056, 33.595886230000076 ], [ 73.981689453000058, 33.600097656000059 ], [ 73.976318359000061, 33.609130859000061 ], [ 73.965881348000039, 33.626892090000069 ], [ 73.95788574200003, 33.640686035000044 ], [ 73.956115723000039, 33.651916504000042 ], [ 73.952270508000083, 33.676879883000026 ], [ 73.948303223000039, 33.714477539000029 ], [ 73.957275391000053, 33.731506348000039 ], [ 73.974487305000082, 33.764282227000024 ], [ 73.98327636700003, 33.772277832000043 ], [ 74.003112793000071, 33.790283203000058 ], [ 74.019897461000085, 33.805725098000039 ], [ 74.026916504000042, 33.811889648000033 ], [ 74.053527832000043, 33.818908691000047 ], [ 74.070678711000085, 33.823303223000039 ], [ 74.091125488000046, 33.828674316000047 ], [ 74.136291504000042, 33.828674316000047 ], [ 74.160522461000085, 33.84069824200003 ], [ 74.182922363000046, 33.852294922000056 ], [ 74.199890137000068, 33.861877441000047 ], [ 74.227905273000033, 33.878112793000071 ], [ 74.24108886700003, 33.885681152000075 ], [ 74.267272949000073, 33.899902344000054 ], [ 74.26647949200003, 33.915283203000058 ], [ 74.265319824000073, 33.941894531000059 ], [ 74.264892578000058, 33.952270508000026 ], [ 74.252929687000062, 33.980895996000072 ], [ 74.240905762000068, 33.994079590000069 ], [ 74.230102539000029, 34.005676270000038 ], [ 74.211730957000043, 34.014099121000072 ], [ 74.188720703000058, 34.021301270000038 ], [ 74.169128418000071, 34.023681641000053 ], [ 74.131530762000068, 34.028503418000071 ], [ 74.110717773000033, 34.034118652000075 ], [ 74.095886230000076, 34.038085937000062 ], [ 74.045898437000062, 34.038085937000062 ], [ 74.024475098000039, 34.033325195000032 ], [ 74.005920410000044, 34.022888184000067 ], [ 73.986328125000057, 34.01647949200003 ], [ 73.965515137000068, 34.012695312000062 ], [ 73.945922852000081, 34.011901855000076 ], [ 73.934692383000083, 34.016723633000026 ], [ 73.909729004000042, 34.027893066000047 ], [ 73.903076172000056, 34.030883789000029 ], [ 73.891296387000068, 34.047485352000024 ], [ 73.895874023000033, 34.071105957000043 ], [ 73.905517578000058, 34.118896484000061 ], [ 73.918518066000047, 34.128906250000057 ], [ 73.936523437000062, 34.142700195000032 ], [ 73.944274902000075, 34.145874023000033 ], [ 73.988098145000038, 34.163696289000029 ], [ 74.000671387000068, 34.168884277000075 ], [ 74.007873535000044, 34.197509766000053 ], [ 74.007873535000044, 34.224487305000025 ], [ 74.007873535000044, 34.240295410000044 ], [ 74.000671387000068, 34.26647949200003 ], [ 73.984497070000032, 34.271118164000029 ], [ 73.962280273000033, 34.278320312000062 ], [ 73.950683594000054, 34.280700684000067 ], [ 73.947082520000038, 34.311279297000056 ], [ 73.934875488000046, 34.317687988000046 ], [ 73.916076660000044, 34.325683594000054 ], [ 73.910278320000032, 34.328308105000076 ], [ 73.898071289000029, 34.319885254000042 ], [ 73.886474609000061, 34.311706543000071 ], [ 73.866882324000073, 34.311706543000071 ], [ 73.847900391000053, 34.311706543000071 ], [ 73.82647705100004, 34.311706543000071 ], [ 73.819885254000042, 34.311706543000071 ], [ 73.803283691000047, 34.337890625000057 ], [ 73.79132080100004, 34.356872559000067 ], [ 73.802917480000076, 34.375122070000032 ], [ 73.811096191000047, 34.388122559000067 ], [ 73.819885254000042, 34.402099609000061 ], [ 73.845520020000038, 34.411499023000033 ], [ 73.890686035000044, 34.431518555000025 ], [ 73.907897949000073, 34.440124512000068 ], [ 73.912719727000081, 34.475891113000046 ], [ 73.954711914000029, 34.51593017600004 ], [ 73.967285156000059, 34.528076172000056 ], [ 73.972106934000067, 34.566284180000025 ], [ 73.962707520000038, 34.590087891000053 ], [ 73.972106934000067, 34.637695312000062 ], [ 74.014892578000058, 34.666076660000044 ], [ 74.052307129000042, 34.659118652000075 ], [ 74.091125488000046, 34.651916504000042 ], [ 74.110473633000083, 34.654907227000024 ], [ 74.137878418000071, 34.659118652000075 ], [ 74.152893066000047, 34.661499023000033 ], [ 74.193115234000061, 34.682128906000059 ], [ 74.226684570000032, 34.699096680000025 ], [ 74.26452636700003, 34.714904785000044 ], [ 74.288085937000062, 34.72491455100004 ], [ 74.311523437000062, 34.735290527000075 ], [ 74.333129883000083, 34.745727539000029 ], [ 74.356506348000039, 34.749877930000025 ], [ 74.379089355000076, 34.756530762000068 ], [ 74.433715820000032, 34.756530762000068 ], [ 74.494873047000056, 34.738281250000057 ], [ 74.524902344000054, 34.729919434000067 ], [ 74.550292969000054, 34.723327637000068 ], [ 74.567077637000068, 34.721313477000024 ], [ 74.584472656000059, 34.719299316000047 ], [ 74.592529297000056, 34.718078613000046 ], [ 74.645507812000062, 34.702697754000042 ], [ 74.673889160000044, 34.694519043000071 ], [ 74.71710205100004, 34.681884766000053 ], [ 74.762878418000071, 34.668701172000056 ], [ 74.788513184000067, 34.661926270000038 ], [ 74.825317383000083, 34.652709961000028 ], [ 74.838317871000072, 34.649475098000039 ], [ 74.862487793000071, 34.630126953000058 ], [ 74.874328613000046, 34.620727539000029 ] ] ] } }
]
}
